PERSEUS-M1              
1 40039U 14033AF  26157.66616448  .00002719  00000+0  25013-3 0  9991
2 40039  97.9642 101.6258 0010861 341.2925  18.7895 14.95601690649064
POLYITAN-1              
1 40042U 14033AJ  26157.87019679  .00021098  00000+0  66513-3 0  9992
2 40042  98.0951 183.1584 0007835 171.6009 188.5364 15.32894505652012
TIGRISAT                
1 40043U 14033AK  26157.67274014  .00002567  00000+0  29957-3 0  9998
2 40043  97.7825 307.9266 0050698 108.7426 251.9300 14.85120610644068
AEROCUBE 6A             
1 40045U 14033AM  26157.40320187  .00008437  00000+0  70809-3 0  9998
2 40045  97.7224 324.4674 0039363  53.4951 306.9887 14.97989826645006
AEROCUBE 6B             
1 40046U 14033AN  26157.21585563  .00009415  00000+0  76027-3 0  9994
2 40046  97.7226 324.0473 0039048  46.3596 314.0854 14.99446844645114
CANX-4                  
1 40055U 14034C   26157.81660324  .00001023  00000+0  13852-3 0  9994
2 40055  98.3134  32.7484 0013815  48.5056 311.7338 14.81245612642998
CANX-5                  
1 40056U 14034D   26157.88270720  .00001024  00000+0  13859-3 0  9997
2 40056  98.3137  32.8600 0013806  48.4720 311.7673 14.81262857633813
UKUBE-1                 
1 40074U 14037F   26157.85445552  .00009808  00000+0  55356-3 0  9990
2 40074  98.4243 160.0422 0002048 144.2511 215.8855 15.13388051646997
BRITE-PL2 (HEWELIUSZ)   
1 40119U 14049B   26157.19256091  .00003210  00000+0  30175-3 0  9991
2 40119  97.9087 269.1089 0015051 141.6770 218.5523 14.94554868639806
AEROCUBE 5C             
1 40965U 15058B   26157.77746297  .00003347  00000+0  29893-3 0  9993
2 40965  64.7684 294.9732 0130359  67.3558 294.1280 14.91403984364105
AEROCUBE 7              
1 40966U 15058C   26157.60287560  .00004622  00000+0  37233-3 0  9993
2 40966  64.7631 277.9668 0120100  65.9158 295.4465 14.95656933364376
FOX-1A (AO-85)          
1 40967U 15058D   26157.62044007  .00003329  00000+0  30158-3 0  9995
2 40967  64.7764 311.8208 0129891  60.7292 300.6731 14.90916620111990
SINOD-D 1               
1 40968U 15058E   26157.58209554  .00004594  00000+0  36985-3 0  9990
2 40968  64.7762 292.1222 0118457  57.3168 303.9305 14.95835875115079
SNAP-3 ALICE            
1 40970U 15058G   26157.65276286  .00129858  00000+0  16803-2 0  9994
2 40970  64.7500 140.2793 0031175  17.9437 342.2800 15.57674790115241
LMRST-SAT               
1 40971U 15058H   26157.77434295  .00003354  00000+0  30547-3 0  9998
2 40971  64.7770 307.6608 0131558  62.6902 298.7533 14.90541819112005
SNAP-3 EDDIE            
1 40972U 15058J   26157.65100059  .00135511  00000+0  16760-2 0  9995
2 40972  64.7422 131.0874 0030936  22.1287 338.1185 15.58856529117389
PROPCUBE 3              
1 40973U 15058K   26157.63466296  .00004036  00000+0  33723-3 0  9998
2 40973  64.7695 285.5042 0123585  64.1044 297.2748 14.94197291113226
BISONSAT                
1 40974U 15058L   26157.54493392  .00013202  00000+0  64215-3 0  9991
2 40974  64.7585 208.0451 0078299  51.6298 309.1826 15.15972726114007
SNAP-3 JIMI             
1 40975U 15058M   26157.60443897  .00006350  00000+0  43791-3 0  9996
2 40975  64.7651 253.2536 0105647  59.7101 301.4419 15.02206649112638
PROPCUBE 1 (FLORA)      
1 40976U 15058N   26157.58539022  .00003473  00000+0  32821-3 0  9995
2 40976  64.7758 328.0929 0130273  65.0852 296.3732 14.89170993114683
SINOD-D 3               
1 40977U 15058P   26157.59767384  .00004661  00000+0  39402-3 0  9993
2 40977  64.7737 308.8854 0118807  62.3341 298.9770 14.93946885113175
HORYU-4                 
1 41340U 16012D   26157.40366388  .00388649  00000+0  12904-2 0  9996
2 41340  30.9846 157.7637 0002648 198.1452 161.9114 15.88250571569094
RAVAN                   
1 41849U 16067B   26157.80659345  .00051994  00000+0  81057-3 0  9998
2 41849  97.9898  46.1866 0005884  60.1310 300.0526 15.53683350526081
CELTEE 1                
1 41850U 16067C   26157.60577272  .00006433  00000+0  30592-3 0  9992
2 41850  98.0683  23.4510 0000654  88.6559 271.4749 15.19578770524279
OPTICUBE 04             
1 41851U 16067D   26157.87170003  .00003048  00000+0  19347-3 0  9997
2 41851  98.0710   9.6171 0016313 148.3966 211.8245 15.09614970523613
AEROCUBE 8D             
1 41852U 16067E   26157.58686308  .00009889  00000+0  40833-3 0  9999
2 41852  98.0694  26.9520 0004002 150.7564 209.3896 15.24248501524455
AEROCUBE 8C             
1 41853U 16067F   26157.61357209  .00009402  00000+0  38542-3 0  9994
2 41853  98.0565  24.2218 0006760  96.9523 263.2482 15.24494142524451
CORVUS BC2              
1 42846U 17042X   26157.69867994  .00003855  00000+0  26634-3 0  9991
2 42846  97.4066 319.4581 0014152 142.1285 218.0941 15.06231398485487
CORVUS BC1              
1 42847U 17042Y   26157.22949516  .00003751  00000+0  25816-3 0  9998
2 42847  97.4093 319.8140 0013365 122.2429 238.0096 15.06396296485445
MAKERSAT 0              
1 43016U 17073D   26157.59817271  .00026582  00000+0  72748-3 0  9996
2 43016  97.4643  40.0370 0106290 311.3073  47.9054 15.31712547464840
